[{"OBJECT_NAME":"STARLINK-31139","OBJECT_ID":"2023-211X","EPOCH":"2025-09-10T18:29:45.489696","MEAN_MOTION":15.26637686,"ECCENTRICITY":0.00020179,"INCLINATION":43,"RA_OF_ASC_NODE":20.9345,"ARG_OF_PERICENTER":292.9653,"MEAN_ANOMALY":67.0986,"EPHEMERIS_TYPE":0,"CLASSIFICATION_TYPE":"U","NORAD_CAT_ID":58688,"ELEMENT_SET_NO":999,"REV_AT_EPOCH":9495,"BSTAR":0.00088645921,"MEAN_MOTION_DOT":0.00023521,"MEAN_MOTION_DDOT":0},{"OBJECT_NAME":"STARLINK-31106","OBJECT_ID":"2023-211Y","EPOCH":"2025-09-11T01:36:32.855616","MEAN_MOTION":15.27572286,"ECCENTRICITY":4.482e-5,"INCLINATION":42.9952,"RA_OF_ASC_NODE":19.6946,"ARG_OF_PERICENTER":23.8616,"MEAN_ANOMALY":336.2256,"EPHEMERIS_TYPE":0,"CLASSIFICATION_TYPE":"U","NORAD_CAT_ID":58689,"ELEMENT_SET_NO":999,"REV_AT_EPOCH":9499,"BSTAR":-6.7009031e-5,"MEAN_MOTION_DOT":-2.105e-5,"MEAN_MOTION_DDOT":0},{"OBJECT_NAME":"STARLINK-11072 [DTC]","OBJECT_ID":"2024-002A","EPOCH":"2025-09-10T22:15:14.866560","MEAN_MOTION":15.69727053,"ECCENTRICITY":6.673e-5,"INCLINATION":53.1596,"RA_OF_ASC_NODE":80.1874,"ARG_OF_PERICENTER":56.2239,"MEAN_ANOMALY":303.8843,"EPHEMERIS_TYPE":0,"CLASSIFICATION_TYPE":"U","NORAD_CAT_ID":58705,"ELEMENT_SET_NO":999,"REV_AT_EPOCH":9820,"BSTAR":1.896932e-6,"MEAN_MOTION_DOT":-3.58e-6,"MEAN_MOTION_DDOT":0},{"OBJECT_NAME":"STARLINK-11075 [DTC]","OBJECT_ID":"2024-002B","EPOCH":"2025-09-10T22:22:19.358400","MEAN_MOTION":15.69718498,"ECCENTRICITY":4.312e-5,"INCLINATION":53.1586,"RA_OF_ASC_NODE":80.2242,"ARG_OF_PERICENTER":57.3552,"MEAN_ANOMALY":302.7507,"EPHEMERIS_TYPE":0,"CLASSIFICATION_TYPE":"U","NORAD_CAT_ID":58706,"ELEMENT_SET_NO":999,"REV_AT_EPOCH":9820,"BSTAR":-3.3088843e-5,"MEAN_MOTION_DOT":-4.595e-5,"MEAN_MOTION_DDOT":0},{"OBJECT_NAME":"STARLINK-11077 [DTC]","OBJECT_ID":"2024-002C","EPOCH":"2025-09-10T22:29:23.232480","MEAN_MOTION":15.69714466,"ECCENTRICITY":5.254e-5,"INCLINATION":53.1595,"RA_OF_ASC_NODE":80.2362,"ARG_OF_PERICENTER":79.5372,"MEAN_ANOMALY":280.5705,"EPHEMERIS_TYPE":0,"CLASSIFICATION_TYPE":"U","NORAD_CAT_ID":58707,"ELEMENT_SET_NO":999,"REV_AT_EPOCH":9820,"BSTAR":-1.6463075e-5,"MEAN_MOTION_DOT":-2.582e-5,"MEAN_MOTION_DDOT":0},{"OBJECT_NAME":"STARLINK-11079 [DTC]","OBJECT_ID":"2024-002D","EPOCH":"2025-09-10T19:04:49.096416","MEAN_MOTION":15.69724148,"ECCENTRICITY":6.895e-5,"INCLINATION":53.1588,"RA_OF_ASC_NODE":80.7765,"ARG_OF_PERICENTER":86.2589,"MEAN_ANOMALY":273.8508,"EPHEMERIS_TYPE":0,"CLASSIFICATION_TYPE":"U","NORAD_CAT_ID":58708,"ELEMENT_SET_NO":999,"REV_AT_EPOCH":9818,"BSTAR":-1.3630925e-5,"MEAN_MOTION_DOT":-2.24e-5,"MEAN_MOTION_DDOT":0},{"OBJECT_NAME":"STARLINK-11076 [DTC]","OBJECT_ID":"2024-002E","EPOCH":"2025-09-11T05:39:33.710112","MEAN_MOTION":15.69703559,"ECCENTRICITY":5.803e-5,"INCLINATION":53.1594,"RA_OF_ASC_NODE":78.5519,"ARG_OF_PERICENTER":101.9767,"MEAN_ANOMALY":258.1316,"EPHEMERIS_TYPE":0,"CLASSIFICATION_TYPE":"U","NORAD_CAT_ID":58709,"ELEMENT_SET_NO":999,"REV_AT_EPOCH":9825,"BSTAR":-1.0467143e-5,"MEAN_MOTION_DOT":-1.855e-5,"MEAN_MOTION_DDOT":0},{"OBJECT_NAME":"STARLINK-11078 [DTC]","OBJECT_ID":"2024-002F","EPOCH":"2025-09-10T21:54:03.912192","MEAN_MOTION":15.69714391,"ECCENTRICITY":5.017e-5,"INCLINATION":53.1589,"RA_OF_ASC_NODE":80.0905,"ARG_OF_PERICENTER":100.6462,"MEAN_ANOMALY":259.4613,"EPHEMERIS_TYPE":0,"CLASSIFICATION_TYPE":"U","NORAD_CAT_ID":58710,"ELEMENT_SET_NO":999,"REV_AT_EPOCH":9820,"BSTAR":-1.302358e-5,"MEAN_MOTION_DOT":-2.165e-5,"MEAN_MOTION_DDOT":0},{"OBJECT_NAME":"STARLINK-31031","OBJECT_ID":"2024-002G","EPOCH":"2025-09-11T06:29:26.612160","MEAN_MOTION":15.3019725,"ECCENTRICITY":6.211e-5,"INCLINATION":53.1608,"RA_OF_ASC_NODE":343.445,"ARG_OF_PERICENTER":67.9158,"MEAN_ANOMALY":292.1909,"EPHEMERIS_TYPE":0,"CLASSIFICATION_TYPE":"U","NORAD_CAT_ID":58711,"ELEMENT_SET_NO":999,"REV_AT_EPOCH":9454,"BSTAR":2.9903014e-5,"MEAN_MOTION_DOT":5.27e-6,"MEAN_MOTION_DDOT":0},{"OBJECT_NAME":"STARLINK-31029","OBJECT_ID":"2024-002H","EPOCH":"2025-09-11T05:49:56.816544","MEAN_MOTION":15.30193295,"ECCENTRICITY":9.494e-5,"INCLINATION":53.1613,"RA_OF_ASC_NODE":343.2787,"ARG_OF_PERICENTER":111.9366,"MEAN_ANOMALY":248.1736,"EPHEMERIS_TYPE":0,"CLASSIFICATION_TYPE":"U","NORAD_CAT_ID":58712,"ELEMENT_SET_NO":999,"REV_AT_EPOCH":9454,"BSTAR":-7.6930364e-5,"MEAN_MOTION_DOT":-2.636e-5,"MEAN_MOTION_DDOT":0},{"OBJECT_NAME":"STARLINK-30973","OBJECT_ID":"2024-002J","EPOCH":"2025-09-10T23:42:50.620896","MEAN_MOTION":15.30199238,"ECCENTRICITY":9.027e-5,"INCLINATION":53.1613,"RA_OF_ASC_NODE":344.534,"ARG_OF_PERICENTER":76.8343,"MEAN_ANOMALY":283.2759,"EPHEMERIS_TYPE":0,"CLASSIFICATION_TYPE":"U","NORAD_CAT_ID":58713,"ELEMENT_SET_NO":999,"REV_AT_EPOCH":9450,"BSTAR":-3.8302392e-5,"MEAN_MOTION_DOT":-1.493e-5,"MEAN_MOTION_DDOT":0},{"OBJECT_NAME":"STARLINK-31100","OBJECT_ID":"2024-002K","EPOCH":"2025-09-10T23:47:24.024192","MEAN_MOTION":15.3019999,"ECCENTRICITY":0.00010875,"INCLINATION":53.1618,"RA_OF_ASC_NODE":344.552,"ARG_OF_PERICENTER":80.6405,"MEAN_ANOMALY":279.4719,"EPHEMERIS_TYPE":0,"CLASSIFICATION_TYPE":"U","NORAD_CAT_ID":58714,"ELEMENT_SET_NO":999,"REV_AT_EPOCH":9450,"BSTAR":-5.916882e-6,"MEAN_MOTION_DOT":-5.34e-6,"MEAN_MOTION_DDOT":0},{"OBJECT_NAME":"STARLINK-31102","OBJECT_ID":"2024-002L","EPOCH":"2025-09-11T06:38:34.243008","MEAN_MOTION":15.30197938,"ECCENTRICITY":0.00013221,"INCLINATION":53.1624,"RA_OF_ASC_NODE":343.4878,"ARG_OF_PERICENTER":112.1029,"MEAN_ANOMALY":248.0113,"EPHEMERIS_TYPE":0,"CLASSIFICATION_TYPE":"U","NORAD_CAT_ID":58715,"ELEMENT_SET_NO":999,"REV_AT_EPOCH":9454,"BSTAR":-2.9467721e-5,"MEAN_MOTION_DOT":-1.232e-5,"MEAN_MOTION_DDOT":0},{"OBJECT_NAME":"STARLINK-31098","OBJECT_ID":"2024-002M","EPOCH":"2025-09-11T06:06:39.898080","MEAN_MOTION":15.301698,"ECCENTRICITY":0.00010807,"INCLINATION":53.1618,"RA_OF_ASC_NODE":343.3494,"ARG_OF_PERICENTER":95.8793,"MEAN_ANOMALY":264.2331,"EPHEMERIS_TYPE":0,"CLASSIFICATION_TYPE":"U","NORAD_CAT_ID":58716,"ELEMENT_SET_NO":999,"REV_AT_EPOCH":9454,"BSTAR":-4.3043617e-5,"MEAN_MOTION_DOT":-1.632e-5,"MEAN_MOTION_DDOT":0},{"OBJECT_NAME":"STARLINK-31093","OBJECT_ID":"2024-002N","EPOCH":"2025-09-11T06:17:17.068704","MEAN_MOTION":15.30210663,"ECCENTRICITY":8.584e-5,"INCLINATION":53.164,"RA_OF_ASC_NODE":343.4085,"ARG_OF_PERICENTER":60.9355,"MEAN_ANOMALY":299.1732,"EPHEMERIS_TYPE":0,"CLASSIFICATION_TYPE":"U","NORAD_CAT_ID":58717,"ELEMENT_SET_NO":999,"REV_AT_EPOCH":9454,"BSTAR":-0.00012960522,"MEAN_MOTION_DOT":-4.197e-5,"MEAN_MOTION_DDOT":0},{"OBJECT_NAME":"STARLINK-31097","OBJECT_ID":"2024-002P","EPOCH":"2025-09-10T16:06:15.391872","MEAN_MOTION":15.30207074,"ECCENTRICITY":0.00012881,"INCLINATION":53.1621,"RA_OF_ASC_NODE":346.1016,"ARG_OF_PERICENTER":73.9663,"MEAN_ANOMALY":286.1479,"EPHEMERIS_TYPE":0,"CLASSIFICATION_TYPE":"U","NORAD_CAT_ID":58718,"ELEMENT_SET_NO":999,"REV_AT_EPOCH":9445,"BSTAR":-0.00010240587,"MEAN_MOTION_DOT":-3.391e-5,"MEAN_MOTION_DDOT":0},{"OBJECT_NAME":"STARLINK-31051","OBJECT_ID":"2024-002Q","EPOCH":"2025-09-11T06:20:19.435776","MEAN_MOTION":15.30200171,"ECCENTRICITY":0.00010999,"INCLINATION":53.1619,"RA_OF_ASC_NODE":343.406,"ARG_OF_PERICENTER":63.2135,"MEAN_ANOMALY":296.8978,"EPHEMERIS_TYPE":0,"CLASSIFICATION_TYPE":"U","NORAD_CAT_ID":58719,"ELEMENT_SET_NO":999,"REV_AT_EPOCH":9454,"BSTAR":1.8720084e-5,"MEAN_MOTION_DOT":1.95e-6,"MEAN_MOTION_DDOT":0},{"OBJECT_NAME":"STARLINK-31027","OBJECT_ID":"2024-002R","EPOCH":"2025-09-11T05:35:55.008384","MEAN_MOTION":15.31556811,"ECCENTRICITY":0.00019688,"INCLINATION":53.16,"RA_OF_ASC_NODE":343.2175,"ARG_OF_PERICENTER":73.4847,"MEAN_ANOMALY":286.6371,"EPHEMERIS_TYPE":0,"CLASSIFICATION_TYPE":"U","NORAD_CAT_ID":58720,"ELEMENT_SET_NO":999,"REV_AT_EPOCH":9454,"BSTAR":0.00031764304,"MEAN_MOTION_DOT":9.461e-5,"MEAN_MOTION_DDOT":0},{"OBJECT_NAME":"STARLINK-30972","OBJECT_ID":"2024-002S","EPOCH":"2025-09-11T06:00:35.004096","MEAN_MOTION":15.30178138,"ECCENTRICITY":0.00011028,"INCLINATION":53.1607,"RA_OF_ASC_NODE":343.3189,"ARG_OF_PERICENTER":99.6497,"MEAN_ANOMALY":260.4628,"EPHEMERIS_TYPE":0,"CLASSIFICATION_TYPE":"U","NORAD_CAT_ID":58721,"ELEMENT_SET_NO":999,"REV_AT_EPOCH":9454,"BSTAR":5.0207911e-5,"MEAN_MOTION_DOT":1.127e-5,"MEAN_MOTION_DDOT":0},{"OBJECT_NAME":"STARLINK-31040","OBJECT_ID":"2024-002T","EPOCH":"2025-09-11T06:24:52.910784","MEAN_MOTION":15.30207829,"ECCENTRICITY":0.00014955,"INCLINATION":53.1622,"RA_OF_ASC_NODE":343.4244,"ARG_OF_PERICENTER":97.2359,"MEAN_ANOMALY":262.8812,"EPHEMERIS_TYPE":0,"CLASSIFICATION_TYPE":"U","NORAD_CAT_ID":58722,"ELEMENT_SET_NO":999,"REV_AT_EPOCH":9454,"BSTAR":-4.4956262e-5,"MEAN_MOTION_DOT":-1.691e-5,"MEAN_MOTION_DDOT":0},{"OBJECT_NAME":"STARLINK-31033","OBJECT_ID":"2024-002U","EPOCH":"2025-09-10T16:04:43.370688","MEAN_MOTION":15.30210637,"ECCENTRICITY":9.666e-5,"INCLINATION":53.1604,"RA_OF_ASC_NODE":346.0927,"ARG_OF_PERICENTER":83.9076,"MEAN_ANOMALY":276.2035,"EPHEMERIS_TYPE":0,"CLASSIFICATION_TYPE":"U","NORAD_CAT_ID":58723,"ELEMENT_SET_NO":999,"REV_AT_EPOCH":9445,"BSTAR":7.3237682e-5,"MEAN_MOTION_DOT":1.811e-5,"MEAN_MOTION_DDOT":0},{"OBJECT_NAME":"STARLINK-30893","OBJECT_ID":"2024-002V","EPOCH":"2025-09-11T06:43:07.257504","MEAN_MOTION":15.30192391,"ECCENTRICITY":4.718e-5,"INCLINATION":53.1613,"RA_OF_ASC_NODE":343.5121,"ARG_OF_PERICENTER":125.5609,"MEAN_ANOMALY":234.5436,"EPHEMERIS_TYPE":0,"CLASSIFICATION_TYPE":"U","NORAD_CAT_ID":58724,"ELEMENT_SET_NO":999,"REV_AT_EPOCH":9453,"BSTAR":1.8944228e-5,"MEAN_MOTION_DOT":2.02e-6,"MEAN_MOTION_DDOT":0},{"OBJECT_NAME":"STARLINK-30856","OBJECT_ID":"2024-002W","EPOCH":"2025-09-11T06:44:38.845824","MEAN_MOTION":15.30192795,"ECCENTRICITY":0.0001508,"INCLINATION":53.1625,"RA_OF_ASC_NODE":343.513,"ARG_OF_PERICENTER":107.3233,"MEAN_ANOMALY":252.7933,"EPHEMERIS_TYPE":0,"CLASSIFICATION_TYPE":"U","NORAD_CAT_ID":58725,"ELEMENT_SET_NO":999,"REV_AT_EPOCH":9454,"BSTAR":-6.5755e-7,"MEAN_MOTION_DOT":-3.79e-6,"MEAN_MOTION_DDOT":0}]
